{
    "links": {
        "self": "http://www.neowsapp.com/rest/v1/neo/3801991?api_key=iIulBulltgU6a56xZRHN4H3l9WmuAYTsLGpBGhQ2"
    },
    "id": "3801991",
    "neo_reference_id": "3801991",
    "name": "(2018 FD1)",
    "designation": "2018 FD1",
    "nasa_jpl_url": "http://ssd.jpl.nasa.gov/sbdb.cgi?sstr=3801991",
    "absolute_magnitude_h": 25.9,
    "estimated_diameter": {
        "kilometers": {
            "estimated_diameter_min": 0.0175612318,
            "estimated_diameter_max": 0.0392681082
        },
        "meters": {
            "estimated_diameter_min": 17.561231848,
            "estimated_diameter_max": 39.2681081809
        },
        "miles": {
            "estimated_diameter_min": 0.0109120402,
            "estimated_diameter_max": 0.0244000636
        },
        "feet": {
            "estimated_diameter_min": 57.6155918963,
            "estimated_diameter_max": 128.8323800441
        }
    },
    "is_potentially_hazardous_asteroid": false,
    "close_approach_data": [
        {
            "close_approach_date": "2013-03-02",
            "close_approach_date_full": "2013-Mar-02 21:06",
            "epoch_date_close_approach": 1362258360000,
            "relative_velocity": {
                "kilometers_per_second": "13.7451314576",
                "kilometers_per_hour": "49482.4732472556",
                "miles_per_hour": "30746.4845574406"
            },
            "miss_distance": {
                "astronomical": "0.3382246877",
                "lunar": "131.5694035153",
                "kilometers": "50597692.861335199",
                "miles": "31439948.4542517862"
            },
            "orbiting_body": "Earth"
        },
        {
            "close_approach_date": "2018-03-20",
            "close_approach_date_full": "2018-Mar-20 04:55",
            "epoch_date_close_approach": 1521521700000,
            "relative_velocity": {
                "kilometers_per_second": "8.2776174214",
                "kilometers_per_hour": "29799.4227171921",
                "miles_per_hour": "18516.2024100242"
            },
            "miss_distance": {
                "astronomical": "0.0544229807",
                "lunar": "21.1705394923",
                "kilometers": "8141561.991771109",
                "miles": "5058932.0358909442"
            },
            "orbiting_body": "Earth"
        }
    ],
    "orbital_data": {
        "orbit_id": "5",
        "orbit_determination_date": "2018-04-02 06:36:30",
        "first_observation_date": "2018-03-17",
        "last_observation_date": "2018-03-27",
        "data_arc_in_days": 10,
        "observations_used": 33,
        "orbit_uncertainty": "7",
        "minimum_orbit_intersection": ".053273",
        "jupiter_tisserand_invariant": "4.655",
        "epoch_osculation": "2459000.5",
        "eccentricity": ".2593346084002761",
        "semi_major_axis": "1.41474032222133",
        "inclination": "14.11831245579593",
        "ascending_node_longitude": "358.1466139262225",
        "orbital_period": "614.6296747891191",
        "perihelion_distance": "1.047849194769981",
        "perihelion_argument": "187.415562025959",
        "aphelion_distance": "1.781631449672679",
        "perihelion_time": "2458817.763180678049",
        "mean_anomaly": "107.0323442786477",
        "mean_motion": ".5857185469014603",
        "equinox": "J2000",
        "orbit_class": {
            "orbit_class_type": "AMO",
            "orbit_class_description": "Near-Earth asteroid orbits similar to that of 1221 Amor",
            "orbit_class_range": "1.017 AU < q (perihelion) < 1.3 AU"
        }
    },
    "is_sentry_object": false
}